[{"OBJECT_NAME":"CS2","OBJECT_ID":"2021-088C","EPOCH":"2026-03-09T17:38:11.846112","MEAN_MOTION":15.3325593,"ECCENTRICITY":0.00116375,"INCLINATION":97.3928,"RA_OF_ASC_NODE":134.2907,"ARG_OF_PERICENTER":82.3491,"MEAN_ANOMALY":277.9072,"EPHEMERIS_TYPE":0,"CLASSIFICATION_TYPE":"U","NORAD_CAT_ID":49262,"ELEMENT_SET_NO":999,"REV_AT_EPOCH":24526,"BSTAR":0.0005617759,"MEAN_MOTION_DOT":0.00018033,"MEAN_MOTION_DDOT":0},{"OBJECT_NAME":"STARLINK-32930","OBJECT_ID":"2025-048W","EPOCH":"2026-03-09T01:34:33.903552","MEAN_MOTION":15.27604161,"ECCENTRICITY":0.0003608,"INCLINATION":43.0008,"RA_OF_ASC_NODE":89.1017,"ARG_OF_PERICENTER":284.5445,"MEAN_ANOMALY":75.5006,"EPHEMERIS_TYPE":0,"CLASSIFICATION_TYPE":"U","NORAD_CAT_ID":63203,"ELEMENT_SET_NO":999,"REV_AT_EPOCH":5699,"BSTAR":0.0015741537,"MEAN_MOTION_DOT":0.00043347,"MEAN_MOTION_DDOT":0}]
