CS2                     
1 49262U 21088C   26068.73485932  .00018033  00000+0  56178-3 0  9999
2 49262  97.3928 134.2907 0011637  82.3491 277.9072 15.33255930245263
STARLINK-32930          
1 63203U 25048W   26068.06567018  .00043347  00000+0  15742-2 0  9999
2 63203  43.0008  89.1017 0003608 284.5445  75.5006 15.27604161 56991
